{"fetched_at":"2026-03-29T16:36:15Z","count":15609,"tles":[{"name":"STARLINK-11579 [DTC]","line1":"1 63143U 25043M   26087.49582104  .00089886  00000+0  69672-3 0  9998","line2":"2 63143  43.0020 137.0187 0000884 291.3542  68.7232 15.70831154 62316","category":"Starlink"}]}